[{"OBJECT_NAME":"STARLINK-30866","OBJECT_ID":"2023-171H","EPOCH":"2026-03-09T22:00:01.999584","MEAN_MOTION":15.26741742,"ECCENTRICITY":0.00014843,"INCLINATION":43.0016,"RA_OF_ASC_NODE":283.5966,"ARG_OF_PERICENTER":290.9159,"MEAN_ANOMALY":56.9255,"EPHEMERIS_TYPE":0,"CLASSIFICATION_TYPE":"U","NORAD_CAT_ID":58237,"ELEMENT_SET_NO":999,"REV_AT_EPOCH":577,"BSTAR":-0.00059404514,"MEAN_MOTION_DOT":-0.0001616,"MEAN_MOTION_DDOT":0},{"OBJECT_NAME":"PROTOMETHEE","OBJECT_ID":"2023-174BT","EPOCH":"2026-03-09T23:28:08.029344","MEAN_MOTION":15.30202663,"ECCENTRICITY":0.00088339,"INCLINATION":97.3826,"RA_OF_ASC_NODE":147.9552,"ARG_OF_PERICENTER":148.5993,"MEAN_ANOMALY":211.5776,"EPHEMERIS_TYPE":0,"CLASSIFICATION_TYPE":"U","NORAD_CAT_ID":58321,"ELEMENT_SET_NO":999,"REV_AT_EPOCH":12979,"BSTAR":0.00015715731,"MEAN_MOTION_DOT":4.52e-5,"MEAN_MOTION_DDOT":0}]
